SEMAPHORE_L_00010040-01
1 39964U 23056UO  26070.40785880  .00000000  00000+0  00000-0 0  9991
2 39964  54.0000 195.0000 0000000   0.0000   6.5000 15.50590797    17
SEMAPHORE_L_00010040-02
1 39965U 25965BD  26070.40785880  .00000000  00000+0  00000-0 0  9993
2 39965  54.0000 195.0000 0000000   0.0000   9.5000 15.50590797    11
SEMAPHORE_L_00010040-03
1 39966U 22672SO  26070.40785880  .00000000  00000+0  00000-0 0  9996
2 39966  54.0000 195.0000 0000000   0.0000  12.5000 15.50590797    16
SEMAPHORE_L_00010040-04
1 39967U 23911YE  26070.40785880  .00000000  00000+0  00000-0 0  9994
2 39967  54.0000 195.0000 0000000   0.0000  15.5000 15.50590797    10
SEMAPHORE_L_00010040-05
1 39968U 25964DP  26070.40785880  .00000000  00000+0  00000-0 0  9995
2 39968  54.0000 195.0000 0000000   0.0000  18.5000 15.50590797    14
SEMAPHORE_L_00010040-06
1 39969U 22532JU  26070.40785880  .00000000  00000+0  00000-0 0  9994
2 39969  54.0000 195.0000 0000000   0.0000  21.5000 15.50590797    19
SEMAPHORE_L_00010040-07
1 39970U 25996VV  26070.40785880  .00000000  00000+0  00000-0 0  9993
2 39970  54.0000 195.0000 0000000   0.0000  24.5000 15.50590797    14
SEMAPHORE_L_00010040-08
1 39971U 23095CJ  26070.40785880  .00000000  00000+0  00000-0 0  9992
2 39971  54.0000 195.0000 0000000   0.0000  27.5000 15.50590797    18
SEMAPHORE_L_00010040-09
1 39972U 26293YE  26070.40785880  .00000000  00000+0  00000-0 0  9996
2 39972  54.0000 195.0000 0000000   0.0000  30.5000 15.50590797    13
SEMAPHORE_L_00010040-10
1 39973U 24104SA  26070.40785880  .00000000  00000+0  00000-0 0  9996
2 39973  54.0000 195.0000 0000000   0.0000  33.5000 15.50590797    17
SEMAPHORE_L_00010040-11
1 39974U 25396XO  26070.40785880  .00000000  00000+0  00000-0 0  9991
2 39974  54.0000 195.0000 0000000   0.0000  36.5000 15.50590797    11
SEMAPHORE_L_00010040-12
1 39975U 25616KT  26070.40785880  .00000000  00000+0  00000-0 0  9997
2 39975  54.0000 195.0000 0000000   0.0000  39.5000 15.50590797    15
SEMAPHORE_L_00010040-13
1 39976U 26300BR  26070.40785880  .00000000  00000+0  00000-0 0  9999
2 39976  54.0000 195.0000 0000000   0.0000  42.5000 15.50590797    10
SEMAPHORE_L_00010040-14
1 39977U 26974NS  26070.40785880  .00000000  00000+0  00000-0 0  9997
2 39977  54.0000 195.0000 0000000   0.0000  45.5000 15.50590797    14
SEMAPHORE_L_00010040-15
1 39978U 26663OQ  26070.40785880  .00000000  00000+0  00000-0 0  9993
2 39978  54.0000 195.0000 0000000   0.0000  48.5000 15.50590797    18
SEMAPHORE_L_00010040-16
1 39979U 25121NM  26070.40785880  .00000000  00000+0  00000-0 0  9992
2 39979  54.0000 195.0000 0000000   0.0000  51.5000 15.50590797    13
SEMAPHORE_L_00010040-17
1 39980U 24093GN  26070.40785880  .00000000  00000+0  00000-0 0  9991
2 39980  54.0000 195.0000 0000000   0.0000  54.5000 15.50590797    18
SEMAPHORE_L_00010040-18
1 39981U 22957XW  26070.40785880  .00000000  00000+0  00000-0 0  9999
2 39981  54.0000 195.0000 0000000   0.0000  57.5000 15.50590797    12
SEMAPHORE_L_00010040-19
1 39982U 25824MF  26070.40785880  .00000000  00000+0  00000-0 0  9996
2 39982  54.0000 195.0000 0000000   0.0000  60.5000 15.50590797    17
SEMAPHORE_L_00010040-20
1 39983U 26261XJ  26070.40785880  .00000000  00000+0  00000-0 0  9993
2 39983  54.0000 195.0000 0000000   0.0000  63.5000 15.50590797    11
SEMAPHORE_L_00010040-21
1 39984U 22095CJ  26070.40785880  .00000000  00000+0  00000-0 0  9995
2 39984  54.0000 195.0000 0000000   0.0000  66.5000 15.50590797    15
SEMAPHORE_L_00010040-22
1 39985U 25988OP  26070.40785880  .00000000  00000+0  00000-0 0  9990
2 39985  54.0000 195.0000 0000000   0.0000  69.5000 15.50590797    19
SEMAPHORE_L_00010040-23
1 39986U 24274PC  26070.40785880  .00000000  00000+0  00000-0 0  9998
2 39986  54.0000 195.0000 0000000   0.0000  72.5000 15.50590797    14
SEMAPHORE_L_00010040-24
1 39987U 23369P   26070.40785880  .00000000  00000+0  00000-0 0  9993
2 39987  54.0000 195.0000 0000000   0.0000  75.5000 15.50590797    18
SEMAPHORE_L_00010040-25
1 39988U 24593SG  26070.40785880  .00000000  00000+0  00000-0 0  9994
2 39988  54.0000 195.0000 0000000   0.0000  78.5000 15.50590797    12
SEMAPHORE_L_00010040-26
1 39989U 23324KU  26070.40785880  .00000000  00000+0  00000-0 0  9996
2 39989  54.0000 195.0000 0000000   0.0000  81.5000 15.50590797    17
SEMAPHORE_L_00010040-27
1 39990U 26308FZ  26070.40785880  .00000000  00000+0  00000-0 0  9993
2 39990  54.0000 195.0000 0000000   0.0000  84.5000 15.50590797    12
SEMAPHORE_L_00010040-28
1 39991U 22638DR  26070.40785880  .00000000  00000+0  00000-0 0  9996
2 39991  54.0000 195.0000 0000000   0.0000  87.5000 15.50590797    16
SEMAPHORE_L_00010040-29
1 39992U 26614QG  26070.40785880  .00000000  00000+0  00000-0 0  9995
2 39992  54.0000 195.0000 0000000   0.0000  90.5000 15.50590797    11
SEMAPHORE_L_00010040-30
1 39993U 22989WJ  26070.40785880  .00000000  00000+0  00000-0 0  9997
2 39993  54.0000 195.0000 0000000   0.0000  93.5000 15.50590797    15
SEMAPHORE_L_00010040-31
1 39994U 24270FV  26070.40785880  .00000000  00000+0  00000-0 0  9993
2 39994  54.0000 195.0000 0000000   0.0000  96.5000 15.50590797    19
SEMAPHORE_L_00010040-32
1 39995U 26909R   26070.40785880  .00000000  00000+0  00000-0 0  9995
2 39995  54.0000 195.0000 0000000   0.0000  99.5000 15.50590797    13
SEMAPHORE_L_00010040-33
1 39996U 23417AT  26070.40785880  .00000000  00000+0  00000-0 0  9997
2 39996  54.0000 195.0000 0000000   0.0000 102.5000 15.50590797    19
SEMAPHORE_L_00010040-34
1 39997U 23827EE  26070.40785880  .00000000  00000+0  00000-0 0  9993
2 39997  54.0000 195.0000 0000000   0.0000 105.5000 15.50590797    13
SEMAPHORE_L_00010040-35
1 39998U 24964BN  26070.40785880  .00000000  00000+0  00000-0 0  9997
2 39998  54.0000 195.0000 0000000   0.0000 108.5000 15.50590797    17
SEMAPHORE_L_00010040-36
1 39999U 25421A   26070.40785880  .00000000  00000+0  00000-0 0  9997
2 39999  54.0000 195.0000 0000000   0.0000 111.5000 15.50590797    12
SEMAPHORE_L_00010040-37
1 40000U 26355UO  26070.40785880  .00000000  00000+0  00000-0 0  9999
2 40000  54.0000 195.0000 0000000   0.0000 114.5000 15.50590797    10
SEMAPHORE_L_00010040-38
1 40001U 25755XK  26070.40785880  .00000000  00000+0  00000-0 0  9993
2 40001  54.0000 195.0000 0000000   0.0000 117.5000 15.50590797    14
SEMAPHORE_L_00010040-39
1 40002U 24908ZE  26070.40785880  .00000000  00000+0  00000-0 0  9993
2 40002  54.0000 195.0000 0000000   0.0000 120.5000 15.50590797    19
SEMAPHORE_L_00010040-40
1 40003U 25532RJ  26070.40785880  .00000000  00000+0  00000-0 0  9998
2 40003  54.0000 195.0000 0000000   0.0000 123.5000 15.50590797    13
SEMAPHORE_L_00010040-41
1 40004U 25837IQ  26070.40785880  .00000000  00000+0  00000-0 0  9997
2 40004  54.0000 195.0000 0000000   0.0000 126.5000 15.50590797    17
SEMAPHORE_L_00010040-42
1 40005U 22927AE  26070.40785880  .00000000  00000+0  00000-0 0  9995
2 40005  54.0000 195.0000 0000000   0.0000 129.5000 15.50590797    11
SEMAPHORE_L_00010040-43
1 40006U 23101WW  26070.40785880  .00000000  00000+0  00000-0 0  9991
2 40006  54.0000 195.0000 0000000   0.0000 132.5000 15.50590797    16
SEMAPHORE_L_00010040-44
1 40007U 25487JX  26070.40785880  .00000000  00000+0  00000-0 0  9991
2 40007  54.0000 195.0000 0000000   0.0000 135.5000 15.50590797    10
SEMAPHORE_L_00010040-45
1 40008U 24677UM  26070.40785880  .00000000  00000+0  00000-0 0  9992
2 40008  54.0000 195.0000 0000000   0.0000 138.5000 15.50590797    14
SEMAPHORE_L_00010040-46
1 40009U 25962SW  26070.40785880  .00000000  00000+0  00000-0 0  9991
2 40009  54.0000 195.0000 0000000   0.0000 141.5000 15.50590797    19
SEMAPHORE_L_00010040-47
1 40010U 24643UT  26070.40785880  .00000000  00000+0  00000-0 0  9998
2 40010  54.0000 195.0000 0000000   0.0000 144.5000 15.50590797    14
SEMAPHORE_L_00010040-48
1 40011U 26341EV  26070.40785880  .00000000  00000+0  00000-0 0  9996
2 40011  54.0000 195.0000 0000000   0.0000 147.5000 15.50590797    18
SEMAPHORE_L_00010040-49
1 40012U 22062JZ  26070.40785880  .00000000  00000+0  00000-0 0  9993
2 40012  54.0000 195.0000 0000000   0.0000 150.5000 15.50590797    13
SEMAPHORE_L_00010040-50
1 40013U 26184O   26070.40785880  .00000000  00000+0  00000-0 0  9993
2 40013  54.0000 195.0000 0000000   0.0000 153.5000 15.50590797    17
SEMAPHORE_L_00010040-51
1 40014U 23119HY  26070.40785880  .00000000  00000+0  00000-0 0  9999
2 40014  54.0000 195.0000 0000000   0.0000 156.5000 15.50590797    11
SEMAPHORE_L_00010040-52
1 40015U 23495GX  26070.40785880  .00000000  00000+0  00000-0 0  9997
2 40015  54.0000 195.0000 0000000   0.0000 159.5000 15.50590797    15
SEMAPHORE_L_00010040-53
1 40016U 22999PV  26070.40785880  .00000000  00000+0  00000-0 0  9996
2 40016  54.0000 195.0000 0000000   0.0000 162.5000 15.50590797    10
SEMAPHORE_L_00010040-54
1 40017U 25334H   26070.40785880  .00000000  00000+0  00000-0 0  9993
2 40017  54.0000 195.0000 0000000   0.0000 165.5000 15.50590797    14
SEMAPHORE_L_00010040-55
1 40018U 23289TX  26070.40785880  .00000000  00000+0  00000-0 0  9991
2 40018  54.0000 195.0000 0000000   0.0000 168.5000 15.50590797    18
SEMAPHORE_L_00010040-56
1 40019U 26732HZ  26070.40785880  .00000000  00000+0  00000-0 0  9998
2 40019  54.0000 195.0000 0000000   0.0000 171.5000 15.50590797    13
SEMAPHORE_L_00010040-57
1 40020U 22532SE  26070.40785880  .00000000  00000+0  00000-0 0  9994
2 40020  54.0000 195.0000 0000000   0.0000 174.5000 15.50590797    18
SEMAPHORE_L_00010040-58
1 40021U 23828BZ  26070.40785880  .00000000  00000+0  00000-0 0  9994
2 40021  54.0000 195.0000 0000000   0.0000 177.5000 15.50590797    12
SEMAPHORE_L_00010040-59
1 40022U 22383WV  26070.40785880  .00000000  00000+0  00000-0 0  9990
2 40022  54.0000 195.0000 0000000   0.0000 180.5000 15.50590797    17
SEMAPHORE_L_00010040-60
1 40023U 23034YZ  26070.40785880  .00000000  00000+0  00000-0 0  9995
2 40023  54.0000 195.0000 0000000   0.0000 183.5000 15.50590797    11
